[{"OBJECT_NAME":"O3B FM17","OBJECT_ID":"2019-020C","EPOCH":"2026-03-03T23:26:37.167648","MEAN_MOTION":5.0011543,"ECCENTRICITY":0.000269,"INCLINATION":0.0394,"RA_OF_ASC_NODE":339.9122,"ARG_OF_PERICENTER":357.7404,"MEAN_ANOMALY":22.3289,"EPHEMERIS_TYPE":0,"CLASSIFICATION_TYPE":"U","NORAD_CAT_ID":44114,"ELEMENT_SET_NO":999,"REV_AT_EPOCH":12626,"BSTAR":0,"MEAN_MOTION_DOT":-2.8e-7,"MEAN_MOTION_DDOT":0},{"OBJECT_NAME":"O3B FM18","OBJECT_ID":"2019-020D","EPOCH":"2026-03-03T12:33:35.684352","MEAN_MOTION":5.00115242,"ECCENTRICITY":0.0002751,"INCLINATION":0.0519,"RA_OF_ASC_NODE":0.0145,"ARG_OF_PERICENTER":341.722,"MEAN_ANOMALY":18.2467,"EPHEMERIS_TYPE":0,"CLASSIFICATION_TYPE":"U","NORAD_CAT_ID":44115,"ELEMENT_SET_NO":999,"REV_AT_EPOCH":12636,"BSTAR":0,"MEAN_MOTION_DOT":-2.8e-7,"MEAN_MOTION_DDOT":0},{"OBJECT_NAME":"SES-17","OBJECT_ID":"2021-095A","EPOCH":"2026-03-03T13:45:25.111584","MEAN_MOTION":1.00281372,"ECCENTRICITY":7.26e-5,"INCLINATION":0.0228,"RA_OF_ASC_NODE":65.8789,"ARG_OF_PERICENTER":300.0742,"MEAN_ANOMALY":294.6288,"EPHEMERIS_TYPE":0,"CLASSIFICATION_TYPE":"U","NORAD_CAT_ID":49332,"ELEMENT_SET_NO":999,"REV_AT_EPOCH":1679,"BSTAR":0,"MEAN_MOTION_DOT":-2.87e-6,"MEAN_MOTION_DDOT":0},{"OBJECT_NAME":"SES-22","OBJECT_ID":"2022-071A","EPOCH":"2026-03-03T23:41:03.847776","MEAN_MOTION":1.00273741,"ECCENTRICITY":0.0001017,"INCLINATION":0.019,"RA_OF_ASC_NODE":169.5566,"ARG_OF_PERICENTER":182.6973,"MEAN_ANOMALY":25.793,"EPHEMERIS_TYPE":0,"CLASSIFICATION_TYPE":"U","NORAD_CAT_ID":52933,"ELEMENT_SET_NO":999,"REV_AT_EPOCH":646,"BSTAR":0,"MEAN_MOTION_DOT":0,"MEAN_MOTION_DDOT":0},{"OBJECT_NAME":"SES-20","OBJECT_ID":"2022-123A","EPOCH":"2026-03-04T00:36:26.633664","MEAN_MOTION":1.00270678,"ECCENTRICITY":0.0001428,"INCLINATION":0.0167,"RA_OF_ASC_NODE":105.8069,"ARG_OF_PERICENTER":319.3827,"MEAN_ANOMALY":2.5712,"EPHEMERIS_TYPE":0,"CLASSIFICATION_TYPE":"U","NORAD_CAT_ID":53960,"ELEMENT_SET_NO":999,"REV_AT_EPOCH":1247,"BSTAR":0,"MEAN_MOTION_DOT":-1.14e-6,"MEAN_MOTION_DDOT":0},{"OBJECT_NAME":"SES-21","OBJECT_ID":"2022-123B","EPOCH":"2026-03-03T21:55:03.525600","MEAN_MOTION":1.00274058,"ECCENTRICITY":0.0001123,"INCLINATION":0.0282,"RA_OF_ASC_NODE":64.9709,"ARG_OF_PERICENTER":288.3133,"MEAN_ANOMALY":6.1492,"EPHEMERIS_TYPE":0,"CLASSIFICATION_TYPE":"U","NORAD_CAT_ID":53961,"ELEMENT_SET_NO":999,"REV_AT_EPOCH":615,"BSTAR":0,"MEAN_MOTION_DOT":5.6e-7,"MEAN_MOTION_DDOT":0},{"OBJECT_NAME":"O3B MPOWER F1","OBJECT_ID":"2022-174A","EPOCH":"2026-02-27T12:47:31.480800","MEAN_MOTION":5.00103025,"ECCENTRICITY":0.00051583,"INCLINATION":0.0641,"RA_OF_ASC_NODE":351.4493,"ARG_OF_PERICENTER":3.4086,"MEAN_ANOMALY":238.9684,"EPHEMERIS_TYPE":0,"CLASSIFICATION_TYPE":"U","NORAD_CAT_ID":54755,"ELEMENT_SET_NO":999,"REV_AT_EPOCH":5987,"BSTAR":0,"MEAN_MOTION_DOT":-2.6e-7,"MEAN_MOTION_DDOT":0},{"OBJECT_NAME":"O3B MPOWER F2","OBJECT_ID":"2022-174B","EPOCH":"2026-02-17T08:36:28.391616","MEAN_MOTION":5.00731386,"ECCENTRICITY":0.000156,"INCLINATION":0.0642,"RA_OF_ASC_NODE":348.2682,"ARG_OF_PERICENTER":220.555,"MEAN_ANOMALY":151.1634,"EPHEMERIS_TYPE":0,"CLASSIFICATION_TYPE":"U","NORAD_CAT_ID":54756,"ELEMENT_SET_NO":999,"REV_AT_EPOCH":5944,"BSTAR":0,"MEAN_MOTION_DOT":-1.5e-7,"MEAN_MOTION_DDOT":0},{"OBJECT_NAME":"SES-18","OBJECT_ID":"2023-038A","EPOCH":"2026-03-04T03:16:41.743200","MEAN_MOTION":1.00272231,"ECCENTRICITY":0.000244,"INCLINATION":0.0606,"RA_OF_ASC_NODE":273.3547,"ARG_OF_PERICENTER":34.9379,"MEAN_ANOMALY":159.6554,"EPHEMERIS_TYPE":0,"CLASSIFICATION_TYPE":"U","NORAD_CAT_ID":55970,"ELEMENT_SET_NO":999,"REV_AT_EPOCH":1105,"BSTAR":0,"MEAN_MOTION_DOT":-1.14e-6,"MEAN_MOTION_DDOT":0},{"OBJECT_NAME":"SES-19","OBJECT_ID":"2023-038B","EPOCH":"2026-03-04T03:07:35.117184","MEAN_MOTION":1.00272328,"ECCENTRICITY":0.000174,"INCLINATION":0.0541,"RA_OF_ASC_NODE":287.0462,"ARG_OF_PERICENTER":51.4481,"MEAN_ANOMALY":95.3684,"EPHEMERIS_TYPE":0,"CLASSIFICATION_TYPE":"U","NORAD_CAT_ID":55971,"ELEMENT_SET_NO":999,"REV_AT_EPOCH":1102,"BSTAR":0,"MEAN_MOTION_DOT":7.5e-7,"MEAN_MOTION_DDOT":0},{"OBJECT_NAME":"O3B MPOWER F4","OBJECT_ID":"2023-059A","EPOCH":"2026-02-17T05:46:40.580544","MEAN_MOTION":5.00119607,"ECCENTRICITY":0.00064606,"INCLINATION":0.0593,"RA_OF_ASC_NODE":7.9241,"ARG_OF_PERICENTER":334.3658,"MEAN_ANOMALY":17.6828,"EPHEMERIS_TYPE":0,"CLASSIFICATION_TYPE":"U","NORAD_CAT_ID":56367,"ELEMENT_SET_NO":999,"REV_AT_EPOCH":5260,"BSTAR":0,"MEAN_MOTION_DOT":-1.5e-7,"MEAN_MOTION_DDOT":0},{"OBJECT_NAME":"O3B MPOWER F5","OBJECT_ID":"2023-175A","EPOCH":"2026-03-03T23:11:07.683360","MEAN_MOTION":5.00115721,"ECCENTRICITY":0.0004138,"INCLINATION":0.0397,"RA_OF_ASC_NODE":2.5447,"ARG_OF_PERICENTER":345.0636,"MEAN_ANOMALY":12.3748,"EPHEMERIS_TYPE":0,"CLASSIFICATION_TYPE":"U","NORAD_CAT_ID":58346,"ELEMENT_SET_NO":999,"REV_AT_EPOCH":4416,"BSTAR":0,"MEAN_MOTION_DOT":-2.8e-7,"MEAN_MOTION_DDOT":0},{"OBJECT_NAME":"ASTRA 1P (SES-24)","OBJECT_ID":"2024-115A","EPOCH":"2026-03-03T08:46:38.616672","MEAN_MOTION":1.00272526,"ECCENTRICITY":0.00052834,"INCLINATION":0.0596,"RA_OF_ASC_NODE":334.2929,"ARG_OF_PERICENTER":348.1737,"MEAN_ANOMALY":349.5092,"EPHEMERIS_TYPE":0,"CLASSIFICATION_TYPE":"U","NORAD_CAT_ID":60086,"ELEMENT_SET_NO":999,"REV_AT_EPOCH":613,"BSTAR":0,"MEAN_MOTION_DOT":1.05e-6,"MEAN_MOTION_DDOT":0},{"OBJECT_NAME":"O3B MPOWER F7","OBJECT_ID":"2024-244A","EPOCH":"2026-02-28T12:50:16.247328","MEAN_MOTION":5.00115153,"ECCENTRICITY":0.00061429,"INCLINATION":0.0693,"RA_OF_ASC_NODE":5.4961,"ARG_OF_PERICENTER":333.0934,"MEAN_ANOMALY":21.3774,"EPHEMERIS_TYPE":0,"CLASSIFICATION_TYPE":"U","NORAD_CAT_ID":62362,"ELEMENT_SET_NO":999,"REV_AT_EPOCH":2109,"BSTAR":0,"MEAN_MOTION_DOT":-2.8e-7,"MEAN_MOTION_DDOT":0},{"OBJECT_NAME":"O3B MPOWER F8","OBJECT_ID":"2024-244B","EPOCH":"2026-03-03T21:36:03.367872","MEAN_MOTION":5.00115767,"ECCENTRICITY":0.0006643,"INCLINATION":0.0524,"RA_OF_ASC_NODE":316.6662,"ARG_OF_PERICENTER":18.2874,"MEAN_ANOMALY":25.0073,"EPHEMERIS_TYPE":0,"CLASSIFICATION_TYPE":"U","NORAD_CAT_ID":62363,"ELEMENT_SET_NO":999,"REV_AT_EPOCH":1559,"BSTAR":0,"MEAN_MOTION_DOT":-2.8e-7,"MEAN_MOTION_DDOT":0}]
